{
  "type": "FeatureCollection",
  "features": [
    {
      "type": "Feature",
      "properties": {
        "norad_id": 33765,
        "name": "COSMOS 2251 DEB",
        "group": "cosmos-2251-debris",
        "lat": 25.30876659475898,
        "lon": -170.82762778904413,
        "alt_km": 553.5090147413212,
        "timestamp": "2025-12-08T17:43:05.330063+00:00",
        "meta_object_name": "COSMOS 2251 DEB",
        "meta_object_id": "1993-036N",
        "meta_epoch": "2025-12-08T07:14:16.452384",
        "meta_mean_motion": 15.09582822,
        "meta_eccentricity": 0.0066539,
        "meta_inclination": 74.0091,
        "meta_ra_of_asc_node": 182.2804,
        "meta_arg_of_pericenter": 275.1983,
        "meta_mean_anomaly": 258.4767,
        "meta_ephemeris_type": 0,
        "meta_classification_type": "U",
        "meta_norad_cat_id": 33765,
        "meta_element_set_no": 999,
        "meta_rev_at_epoch": 89551,
        "meta_bstar": 0.0021577048,
        "meta_mean_motion_dot": 0.00036665,
        "meta_mean_motion_ddot": 0,
        "tle_line1": "1 33765U 93036N   25342.30157931  .00036665  00000+0  21577-2 0  9999",
        "tle_line2": "2 33765  74.0091 182.2804 0066539 275.1983 258.4767 15.09582822895515"
      },
      "geometry": {
        "type": "Point",
        "coordinates": [
          -170.82762778904413,
          25.30876659475898
        ]
      }
    },
    {
      "type": "Feature",
      "properties": {
        "norad_id": 33766,
        "name": "COSMOS 2251 DEB",
        "group": "cosmos-2251-debris",
        "lat": -52.37803646190074,
        "lon": -16.17756487502603,
        "alt_km": 798.4037197420139,
        "timestamp": "2025-12-08T17:43:05.330074+00:00",
        "meta_object_name": "COSMOS 2251 DEB",
        "meta_object_id": "1993-036P",
        "meta_epoch": "2025-12-08T03:14:05.720352",
        "meta_mean_motion": 14.34913029,
        "meta_eccentricity": 0.00639233,
        "meta_inclination": 74.1854,
        "meta_ra_of_asc_node": 143.341,
        "meta_arg_of_pericenter": 348.0142,
        "meta_mean_anomaly": 11.9485,
        "meta_ephemeris_type": 0,
        "meta_classification_type": "U",
        "meta_norad_cat_id": 33766,
        "meta_element_set_no": 999,
        "meta_rev_at_epoch": 87679,
        "meta_bstar": 0.0006866593,
        "meta_mean_motion_dot": 1.973e-05,
        "meta_mean_motion_ddot": 0,
        "tle_line1": "1 33766U 93036P   25342.13478843  .00001973  00000+0  68666-3 0  9994",
        "tle_line2": "2 33766  74.1854 143.3410 0063923 348.0142  11.9485 14.34913029876798"
      },
      "geometry": {
        "type": "Point",
        "coordinates": [
          -16.17756487502603,
          -52.37803646190074
        ]
      }
    },
    {
      "type": "Feature",
      "properties": {
        "norad_id": 33768,
        "name": "COSMOS 2251 DEB",
        "group": "cosmos-2251-debris",
        "lat": -5.557226986944363,
        "lon": 47.91783961176032,
        "alt_km": 1299.8685020687353,
        "timestamp": "2025-12-08T17:43:05.330086+00:00",
        "meta_object_name": "COSMOS 2251 DEB",
        "meta_object_id": "1993-036R",
        "meta_epoch": "2025-12-08T03:12:59.898240",
        "meta_mean_motion": 13.58448709,
        "meta_eccentricity": 0.0366089,
        "meta_inclination": 74.0687,
        "meta_ra_of_asc_node": 227.3002,
        "meta_arg_of_pericenter": 26.0517,
        "meta_mean_anomaly": 84.3718,
        "meta_ephemeris_type": 0,
        "meta_classification_type": "U",
        "meta_norad_cat_id": 33768,
        "meta_element_set_no": 999,
        "meta_rev_at_epoch": 83233,
        "meta_bstar": 0.00053836804,
        "meta_mean_motion_dot": 5.87e-06,
        "meta_mean_motion_ddot": 0,
        "tle_line1": "1 33768U 93036R   25342.13402660  .00000587  00000+0  53837-3 0  9994",
        "tle_line2": "2 33768  74.0687 227.3002 0366089  26.0517  84.3718 13.58448709832339"
      },
      "geometry": {
        "type": "Point",
        "coordinates": [
          47.91783961176032,
          -5.557226986944363
        ]
      }
    },
    {
      "type": "Feature",
      "properties": {
        "norad_id": 33779,
        "name": "COSMOS 2251 DEB",
        "group": "cosmos-2251-debris",
        "lat": 62.606096089444264,
        "lon": -148.0087377521305,
        "alt_km": 663.6384317639249,
        "timestamp": "2025-12-08T17:43:05.330098+00:00",
        "meta_object_name": "COSMOS 2251 DEB",
        "meta_object_id": "1993-036U",
        "meta_epoch": "2025-12-07T20:15:00.685152",
        "meta_mean_motion": 14.70294313,
        "meta_eccentricity": 0.00174114,
        "meta_inclination": 74.0443,
        "meta_ra_of_asc_node": 180.2145,
        "meta_arg_of_pericenter": 214.547,
        "meta_mean_anomaly": 160.3407,
        "meta_ephemeris_type": 0,
        "meta_classification_type": "U",
        "meta_norad_cat_id": 33779,
        "meta_element_set_no": 999,
        "meta_rev_at_epoch": 88456,
        "meta_bstar": 0.0024352448,
        "meta_mean_motion_dot": 0.00014738,
        "meta_mean_motion_ddot": 0,
        "tle_line1": "1 33779U 93036U   25341.84375793  .00014738  00000+0  24352-2 0  9991",
        "tle_line2": "2 33779  74.0443 180.2145 0017411 214.5470 160.3407 14.70294313884567"
      },
      "geometry": {
        "type": "Point",
        "coordinates": [
          -148.0087377521305,
          62.606096089444264
        ]
      }
    },
    {
      "type": "Feature",
      "properties": {
        "norad_id": 33782,
        "name": "COSMOS 2251 DEB",
        "group": "cosmos-2251-debris",
        "lat": -70.67229209907461,
        "lon": 159.65766495960077,
        "alt_km": 764.3371990377409,
        "timestamp": "2025-12-08T17:43:05.330111+00:00",
        "meta_object_name": "COSMOS 2251 DEB",
        "meta_object_id": "1993-036X",
        "meta_epoch": "2025-12-08T07:05:04.439328",
        "meta_mean_motion": 14.40428969,
        "meta_eccentricity": 0.00205996,
        "meta_inclination": 74.0341,
        "meta_ra_of_asc_node": 285.7663,
        "meta_arg_of_pericenter": 351.278,
        "meta_mean_anomaly": 131.2987,
        "meta_ephemeris_type": 0,
        "meta_classification_type": "U",
        "meta_norad_cat_id": 33782,
        "meta_element_set_no": 999,
        "meta_rev_at_epoch": 88062,
        "meta_bstar": 0.00082661734,
        "meta_mean_motion_dot": 2.607e-05,
        "meta_mean_motion_ddot": 0,
        "tle_line1": "1 33782U 93036X   25342.29519027  .00002607  00000+0  82662-3 0  9996",
        "tle_line2": "2 33782  74.0341 285.7663 0020599 351.2780 131.2987 14.40428969880624"
      },
      "geometry": {
        "type": "Point",
        "coordinates": [
          159.65766495960077,
          -70.67229209907461
        ]
      }
    },
    {
      "type": "Feature",
      "properties": {
        "norad_id": 33785,
        "name": "COSMOS 2251 DEB",
        "group": "cosmos-2251-debris",
        "lat": 38.238512002792575,
        "lon": 80.95627606743479,
        "alt_km": 643.7622392784042,
        "timestamp": "2025-12-08T17:43:05.330123+00:00",
        "meta_object_name": "COSMOS 2251 DEB",
        "meta_object_id": "1993-036AA",
        "meta_epoch": "2025-12-08T08:00:41.083776",
        "meta_mean_motion": 14.70324506,
        "meta_eccentricity": 0.00218687,
        "meta_inclination": 73.8678,
        "meta_ra_of_asc_node": 68.5645,
        "meta_arg_of_pericenter": 8.9681,
        "meta_mean_anomaly": 51.1598,
        "meta_ephemeris_type": 0,
        "meta_classification_type": "U",
        "meta_norad_cat_id": 33785,
        "meta_element_set_no": 999,
        "meta_rev_at_epoch": 88442,
        "meta_bstar": 0.0024833158,
        "meta_mean_motion_dot": 0.0001506,
        "meta_mean_motion_ddot": 0,
        "tle_line1": "1 33785U 93036AA  25342.33380884  .00015060  00000+0  24833-2 0  9993",
        "tle_line2": "2 33785  73.8678  68.5645 0021868   8.9681  51.1598 14.70324506884425"
      },
      "geometry": {
        "type": "Point",
        "coordinates": [
          80.95627606743479,
          38.238512002792575
        ]
      }
    },
    {
      "type": "Feature",
      "properties": {
        "norad_id": 33789,
        "name": "COSMOS 2251 DEB",
        "group": "cosmos-2251-debris",
        "lat": -42.38725660748943,
        "lon": 79.08244120287395,
        "alt_km": 980.2533757118154,
        "timestamp": "2025-12-08T17:43:05.330135+00:00",
        "meta_object_name": "COSMOS 2251 DEB",
        "meta_object_id": "1993-036AE",
        "meta_epoch": "2025-12-08T07:53:08.251872",
        "meta_mean_motion": 13.88780161,
        "meta_eccentricity": 0.02403474,
        "meta_inclination": 74.0651,
        "meta_ra_of_asc_node": 94.8924,
        "meta_arg_of_pericenter": 211.494,
        "meta_mean_anomaly": 213.9092,
        "meta_ephemeris_type": 0,
        "meta_classification_type": "U",
        "meta_norad_cat_id": 33789,
        "meta_element_set_no": 999,
        "meta_rev_at_epoch": 85034,
        "meta_bstar": 0.0013951385,
        "meta_mean_motion_dot": 2.097e-05,
        "meta_mean_motion_ddot": 0,
        "tle_line1": "1 33789U 93036AE  25342.32856773  .00002097  00000+0  13951-2 0  9996",
        "tle_line2": "2 33789  74.0651  94.8924 0240347 211.4940 213.9092 13.88780161850341"
      },
      "geometry": {
        "type": "Point",
        "coordinates": [
          79.08244120287395,
          -42.38725660748943
        ]
      }
    }
  ]
}